[{
    "LivingVolunteers": [],
    "Region": null,
    "VolunteersWorkPreferences": [],
    "Id": 1,
    "Name": "Riyadh",
    "NameAr": "الرياض",
    "RegionId": 1,
    "IsDeleted": false,
    "OldRegionId": 1,
    "Latitude": 24.774265,
    "Longitude": 46.738586
}, {
    "LivingVolunteers": [],
    "Region": null,
    "VolunteersWorkPreferences": [],
    "Id": 2,
    "Name": "Al-Dir'iya",
    "NameAr": "الدرعية",
    "RegionId": 1,
    "IsDeleted": false,
    "OldRegionId": 1,
    "Latitude": 24.748091,
    "Longitude": 46.536206
}, {
    "LivingVolunteers": [],
    "Region": null,
    "VolunteersWorkPreferences": [],
    "Id": 3,
    "Name": "Al Majmaa",
    "NameAr": "المجمعة",
    "RegionId": 1,
    "IsDeleted": false,
    "OldRegionId": 1,
    "Latitude": 25.875985,
    "Longitude": 45.373578
}, {
    "LivingVolunteers": [],
    "Region": null,
    "VolunteersWorkPreferences": [],
    "Id": 4,
    "Name": "Ghat",
    "NameAr": "الغاط",
    "RegionId": 1,
    "IsDeleted": false,
    "OldRegionId": 1,
    "Latitude": 26.030013,
    "Longitude": 44.946067
}, {
    "LivingVolunteers": [],
    "Region": null,
    "VolunteersWorkPreferences": [],
    "Id": 5,
    "Name": "Al Kharj",
    "NameAr": "الخرج",
    "RegionId": 1,
    "IsDeleted": false,
    "OldRegionId": 1,
    "Latitude": 24.157426,
    "Longitude": 47.323836
}, {
    "LivingVolunteers": [],
    "Region": null,
    "VolunteersWorkPreferences": [],
    "Id": 6,
    "Name": "Al - Dawadmi",
    "NameAr": "الدوادمى",
    "RegionId": 1,
    "IsDeleted": false,
    "OldRegionId": 1,
    "Latitude": 24.516361,
    "Longitude": 44.418156
}, {
    "LivingVolunteers": [],
    "Region": null,
    "VolunteersWorkPreferences": [],
    "Id": 7,
    "Name": "Quwaia",
    "NameAr": "القويعية",
    "RegionId": 1,
    "IsDeleted": false,
    "OldRegionId": 1,
    "Latitude": 24.066713,
    "Longitude": 45.279637
}, {
    "LivingVolunteers": [],
    "Region": null,
    "VolunteersWorkPreferences": [],
    "Id": 8,
    "Name": "Wadi al-Dawasir",
    "NameAr": " وادي الدواسر",
    "RegionId": 1,
    "IsDeleted": false,
    "OldRegionId": 1,
    "Latitude": 20.575775,
    "Longitude": 45.153017
}, {
    "LivingVolunteers": [],
    "Region": null,
    "VolunteersWorkPreferences": [],
    "Id": 9,
    "Name": "Aflaj",
    "NameAr": "الأفلاج",
    "RegionId": 1,
    "IsDeleted": false,
    "OldRegionId": 1,
    "Latitude": 22.289246,
    "Longitude": 46.719876
}, {
    "LivingVolunteers": [],
    "Region": null,
    "VolunteersWorkPreferences": [],
    "Id": 10,
    "Name": "Zulfi",
    "NameAr": "الزلفي",
    "RegionId": 1,
    "IsDeleted": false,
    "OldRegionId": 1,
    "Latitude": 26.309585,
    "Longitude": 44.832289
}, {
    "LivingVolunteers": [],
    "Region": null,
    "VolunteersWorkPreferences": [],
    "Id": 11,
    "Name": "Shaqra'",
    "NameAr": "شقراء",
    "RegionId": 1,
    "IsDeleted": false,
    "OldRegionId": 1,
    "Latitude": 25.300699,
    "Longitude": 45.242552
}, {
    "LivingVolunteers": [],
    "Region": null,
    "VolunteersWorkPreferences": [],
    "Id": 12,
    "Name": "Hotat Bani Tamim",
    "NameAr": "حوطة بني تميم",
    "RegionId": 1,
    "IsDeleted": false,
    "OldRegionId": 1,
    "Latitude": 23.5203,
    "Longitude": 46.842298
}, {
    "LivingVolunteers": [],
    "Region": null,
    "VolunteersWorkPreferences": [],
    "Id": 13,
    "Name": "Afif",
    "NameAr": "عفيف",
    "RegionId": 1,
    "IsDeleted": false,
    "OldRegionId": 1,
    "Latitude": 23.898961,
    "Longitude": 42.922334
}, {
    "LivingVolunteers": [],
    "Region": null,
    "VolunteersWorkPreferences": [],
    "Id": 14,
    "Name": "Al Salyle",
    "NameAr": "السليل",
    "RegionId": 1,
    "IsDeleted": false,
    "OldRegionId": 1,
    "Latitude": 20.469836,
    "Longitude": 45.553711
}, {
    "LivingVolunteers": [],
    "Region": null,
    "VolunteersWorkPreferences": [],
    "Id": 15,
    "Name": "Dhermaa",
    "NameAr": "ضرما",
    "RegionId": 1,
    "IsDeleted": false,
    "OldRegionId": 1,
    "Latitude": 24.604874,
    "Longitude": 46.148628
}, {
    "LivingVolunteers": [],
    "Region": null,
    "VolunteersWorkPreferences": [],
    "Id": 16,
    "Name": "Muzahmieh",
    "NameAr": "المزاحمية",
    "RegionId": 1,
    "IsDeleted": false,
    "OldRegionId": 1,
    "Latitude": 24.46559,
    "Longitude": 46.274458
}, {
    "LivingVolunteers": [],
    "Region": null,
    "VolunteersWorkPreferences": [],
    "Id": 17,
    "Name": "Rammah",
    "NameAr": "رماح",
    "RegionId": 1,
    "IsDeleted": false,
    "OldRegionId": 1,
    "Latitude": 25.559976,
    "Longitude": 47.162258
}, {
    "LivingVolunteers": [],
    "Region": null,
    "VolunteersWorkPreferences": [],
    "Id": 18,
    "Name": "Thadec",
    "NameAr": "ثادق",
    "RegionId": 1,
    "IsDeleted": false,
    "OldRegionId": 1,
    "Latitude": 25.273682,
    "Longitude": 45.871431
}, {
    "LivingVolunteers": [],
    "Region": null,
    "VolunteersWorkPreferences": [],
    "Id": 19,
    "Name": "Harymla'",
    "NameAr": "حريملاء",
    "RegionId": 1,
    "IsDeleted": false,
    "OldRegionId": 1,
    "Latitude": 25.10933,
    "Longitude": 46.107032
}, {
    "LivingVolunteers": [],
    "Region": null,
    "VolunteersWorkPreferences": [],
    "Id": 20,
    "Name": "Haryq",
    "NameAr": "الحريق",
    "RegionId": 1,
    "IsDeleted": false,
    "OldRegionId": 1,
    "Latitude": 23.62548,
    "Longitude": 46.507937
}, {
    "LivingVolunteers": [],
    "Region": null,
    "VolunteersWorkPreferences": [],
    "Id": 21,
    "Name": "Marrat",
    "NameAr": "مرات",
    "RegionId": 1,
    "IsDeleted": false,
    "OldRegionId": 1,
    "Latitude": 25.072208,
    "Longitude": 45.462856
}, {
    "LivingVolunteers": [],
    "Region": null,
    "VolunteersWorkPreferences": [],
    "Id": 22,
    "Name": "Buraidah",
    "NameAr": "بريدة",
    "RegionId": 2,
    "IsDeleted": false,
    "OldRegionId": 2,
    "Latitude": 26.348639,
    "Longitude": 43.982246
}, {
    "LivingVolunteers": [],
    "Region": null,
    "VolunteersWorkPreferences": [],
    "Id": 23,
    "Name": "Onizah",
    "NameAr": "عنيزة",
    "RegionId": 2,
    "IsDeleted": false,
    "OldRegionId": 2,
    "Latitude": 26.088413,
    "Longitude": 43.983303
}, {
    "LivingVolunteers": [],
    "Region": null,
    "VolunteersWorkPreferences": [],
    "Id": 24,
    "Name": " Ar Rass",
    "NameAr": "الرس",
    "RegionId": 2,
    "IsDeleted": false,
    "OldRegionId": 2,
    "Latitude": 25.841704,
    "Longitude": 43.54685
}, {
    "LivingVolunteers": [],
    "Region": null,
    "VolunteersWorkPreferences": [],
    "Id": 25,
    "Name": "Almethnab",
    "NameAr": "المذنب",
    "RegionId": 2,
    "IsDeleted": false,
    "OldRegionId": 2,
    "Latitude": 25.85619,
    "Longitude": 44.223359
}, {
    "LivingVolunteers": [],
    "Region": null,
    "VolunteersWorkPreferences": [],
    "Id": 26,
    "Name": "Al-Bukairiyah",
    "NameAr": "البكيرية",
    "RegionId": 2,
    "IsDeleted": false,
    "OldRegionId": 2,
    "Latitude": 26.160129,
    "Longitude": 43.654612
}, {
    "LivingVolunteers": [],
    "Region": null,
    "VolunteersWorkPreferences": [],
    "Id": 27,
    "Name": "Badaya'a",
    "NameAr": "البدائع",
    "RegionId": 2,
    "IsDeleted": false,
    "OldRegionId": 2,
    "Latitude": 25.981618,
    "Longitude": 43.731544
}, {
    "LivingVolunteers": [],
    "Region": null,
    "VolunteersWorkPreferences": [],
    "Id": 28,
    "Name": "Asyah",
    "NameAr": "الأسياح",
    "RegionId": 2,
    "IsDeleted": false,
    "OldRegionId": 2,
    "Latitude": 27.399456,
    "Longitude": 44.334724
}, {
    "LivingVolunteers": [],
    "Region": null,
    "VolunteersWorkPreferences": [],
    "Id": 29,
    "Name": "Nabhaniya",
    "NameAr": "النبهانية",
    "RegionId": 2,
    "IsDeleted": false,
    "OldRegionId": 2,
    "Latitude": 25.853656,
    "Longitude": 43.065859
}, {
    "LivingVolunteers": [],
    "Region": null,
    "VolunteersWorkPreferences": [],
    "Id": 30,
    "Name": "Uyun AlJiwa",
    "NameAr": "عيون الجواء",
    "RegionId": 2,
    "IsDeleted": false,
    "OldRegionId": 2,
    "Latitude": 26.517663,
    "Longitude": 43.613706
}, {
    "LivingVolunteers": [],
    "Region": null,
    "VolunteersWorkPreferences": [],
    "Id": 31,
    "Name": "Riyadh Al-Khabra",
    "NameAr": "رياض الخبراء",
    "RegionId": 2,
    "IsDeleted": false,
    "OldRegionId": 2,
    "Latitude": 26.043988,
    "Longitude": 43.539564
}, {
    "LivingVolunteers": [],
    "Region": null,
    "VolunteersWorkPreferences": [],
    "Id": 32,
    "Name": "Al Shamsia",
    "NameAr": "الشماسية",
    "RegionId": 2,
    "IsDeleted": false,
    "OldRegionId": 2,
    "Latitude": 26.312424,
    "Longitude": 44.318976
}, {
    "LivingVolunteers": [],
    "Region": null,
    "VolunteersWorkPreferences": [],
    "Id": 33,
    "Name": "Uglat Asugour",
    "NameAr": "عقلة الصقور",
    "RegionId": 2,
    "IsDeleted": false,
    "OldRegionId": 2,
    "Latitude": 25.828604,
    "Longitude": 42.188059
}, {
    "LivingVolunteers": [],
    "Region": null,
    "VolunteersWorkPreferences": [],
    "Id": 34,
    "Name": "Dariyah",
    "NameAr": "ضرية",
    "RegionId": 2,
    "IsDeleted": false,
    "OldRegionId": 2,
    "Latitude": 24.714164,
    "Longitude": 42.928729
}, {
    "LivingVolunteers": [],
    "Region": null,
    "VolunteersWorkPreferences": [],
    "Id": 35,
    "Name": "Tabuk",
    "NameAr": "تبوك",
    "RegionId": 3,
    "IsDeleted": false,
    "OldRegionId": 3,
    "Latitude": 28.394151,
    "Longitude": 36.563501
}, {
    "LivingVolunteers": [],
    "Region": null,
    "VolunteersWorkPreferences": [],
    "Id": 36,
    "Name": "Tayma",
    "NameAr": "تيماء ",
    "RegionId": 3,
    "IsDeleted": false,
    "OldRegionId": 3,
    "Latitude": 27.616628,
    "Longitude": 38.512018
}, {
    "LivingVolunteers": [],
    "Region": null,
    "VolunteersWorkPreferences": [],
    "Id": 37,
    "Name": "Al Wajh",
    "NameAr": "الوجه ",
    "RegionId": 3,
    "IsDeleted": false,
    "OldRegionId": 3,
    "Latitude": 26.234655,
    "Longitude": 36.469535
}, {
    "LivingVolunteers": [],
    "Region": null,
    "VolunteersWorkPreferences": [],
    "Id": 38,
    "Name": "Haql",
    "NameAr": "حقل ",
    "RegionId": 3,
    "IsDeleted": false,
    "OldRegionId": 3,
    "Latitude": 29.283837,
    "Longitude": 34.944777
}, {
    "LivingVolunteers": [],
    "Region": null,
    "VolunteersWorkPreferences": [],
    "Id": 39,
    "Name": "Al-Bad'",
    "NameAr": "البدع",
    "RegionId": 3,
    "IsDeleted": false,
    "OldRegionId": 3,
    "Latitude": 28.473656,
    "Longitude": 35.020226
}, {
    "LivingVolunteers": [],
    "Region": null,
    "VolunteersWorkPreferences": [],
    "Id": 40,
    "Name": "Duba",
    "NameAr": "ضباء",
    "RegionId": 3,
    "IsDeleted": false,
    "OldRegionId": 3,
    "Latitude": 27.343684,
    "Longitude": 35.723527
}, {
    "LivingVolunteers": [],
    "Region": null,
    "VolunteersWorkPreferences": [],
    "Id": 41,
    "Name": "Madinah",
    "NameAr": "المدينة",
    "RegionId": 4,
    "IsDeleted": false,
    "OldRegionId": 4,
    "Latitude": 24.469133,
    "Longitude": 39.624432
}, {
    "LivingVolunteers": [],
    "Region": null,
    "VolunteersWorkPreferences": [],
    "Id": 42,
    "Name": "Yanbu",
    "NameAr": "ينبع",
    "RegionId": 4,
    "IsDeleted": false,
    "OldRegionId": 4,
    "Latitude": 24.010788,
    "Longitude": 38.197115
}, {
    "LivingVolunteers": [],
    "Region": null,
    "VolunteersWorkPreferences": [],
    "Id": 43,
    "Name": "Al-`Ula",
    "NameAr": "العلا",
    "RegionId": 4,
    "IsDeleted": false,
    "OldRegionId": 4,
    "Latitude": 26.548538,
    "Longitude": 37.968172
}, {
    "LivingVolunteers": [],
    "Region": null,
    "VolunteersWorkPreferences": [],
    "Id": 44,
    "Name": "Al Henakiyah",
    "NameAr": "الحناكية",
    "RegionId": 4,
    "IsDeleted": false,
    "OldRegionId": 4,
    "Latitude": 24.899465,
    "Longitude": 40.537309
}, {
    "LivingVolunteers": [],
    "Region": null,
    "VolunteersWorkPreferences": [],
    "Id": 45,
    "Name": "Mahd adh Dhahab",
    "NameAr": "مهد الذهب",
    "RegionId": 4,
    "IsDeleted": false,
    "OldRegionId": 4,
    "Latitude": 23.500897,
    "Longitude": 40.864207
}, {
    "LivingVolunteers": [],
    "Region": null,
    "VolunteersWorkPreferences": [],
    "Id": 46,
    "Name": "Khaybar",
    "NameAr": "خيبر",
    "RegionId": 4,
    "IsDeleted": false,
    "OldRegionId": 4,
    "Latitude": 25.678717,
    "Longitude": 39.293397
}, {
    "LivingVolunteers": [],
    "Region": null,
    "VolunteersWorkPreferences": [],
    "Id": 47,
    "Name": "Badr",
    "NameAr": "بدر",
    "RegionId": 4,
    "IsDeleted": false,
    "OldRegionId": 4,
    "Latitude": 23.768642,
    "Longitude": 38.785477
}, {
    "LivingVolunteers": [],
    "Region": null,
    "VolunteersWorkPreferences": [],
    "Id": 48,
    "Name": "As Suwayriqiyah",
    "NameAr": "السويرقية",
    "RegionId": 4,
    "IsDeleted": false,
    "OldRegionId": 4,
    "Latitude": 23.354223,
    "Longitude": 40.319231
}, {
    "LivingVolunteers": [],
    "Region": null,
    "VolunteersWorkPreferences": [],
    "Id": 49,
    "Name": "Al Ais",
    "NameAr": "العيص",
    "RegionId": 4,
    "IsDeleted": false,
    "OldRegionId": 4,
    "Latitude": 25.059581,
    "Longitude": 38.115693
}, {
    "LivingVolunteers": [],
    "Region": null,
    "VolunteersWorkPreferences": [],
    "Id": 50,
    "Name": "Wadi Al Fora'a",
    "NameAr": "وادي الفرع",
    "RegionId": 4,
    "IsDeleted": false,
    "OldRegionId": 4,
    "Latitude": 23.311148,
    "Longitude": 39.774503
}, {
    "LivingVolunteers": [],
    "Region": null,
    "VolunteersWorkPreferences": [],
    "Id": 51,
    "Name": "Mecca",
    "NameAr": "مكة المكرمة",
    "RegionId": 5,
    "IsDeleted": false,
    "OldRegionId": 5,
    "Latitude": 21.391249,
    "Longitude": 39.856482
}, {
    "LivingVolunteers": [],
    "Region": null,
    "VolunteersWorkPreferences": [],
    "Id": 52,
    "Name": "Jeddah",
    "NameAr": "جدة",
    "RegionId": 5,
    "IsDeleted": false,
    "OldRegionId": 14,
    "Latitude": 21.543333,
    "Longitude": 39.172779
}, {
    "LivingVolunteers": [],
    "Region": null,
    "VolunteersWorkPreferences": [],
    "Id": 53,
    "Name": "Ta'if",
    "NameAr": "الطائف",
    "RegionId": 5,
    "IsDeleted": false,
    "OldRegionId": 15,
    "Latitude": 21.281381,
    "Longitude": 40.418514
}, {
    "LivingVolunteers": [],
    "Region": null,
    "VolunteersWorkPreferences": [],
    "Id": 54,
    "Name": "Rabigh",
    "NameAr": "رابغ",
    "RegionId": 5,
    "IsDeleted": false,
    "OldRegionId": 14,
    "Latitude": 22.789483,
    "Longitude": 39.019334
}, {
    "LivingVolunteers": [],
    "Region": null,
    "VolunteersWorkPreferences": [],
    "Id": 55,
    "Name": "Al Kamil",
    "NameAr": "الكامل",
    "RegionId": 5,
    "IsDeleted": false,
    "OldRegionId": 14,
    "Latitude": 22.422901,
    "Longitude": 39.934552
}, {
    "LivingVolunteers": [],
    "Region": null,
    "VolunteersWorkPreferences": [],
    "Id": 56,
    "Name": "Al Qunfudhah",
    "NameAr": "القنفذة",
    "RegionId": 5,
    "IsDeleted": false,
    "OldRegionId": 5,
    "Latitude": 19.124874,
    "Longitude": 41.08142
}, {
    "LivingVolunteers": [],
    "Region": null,
    "VolunteersWorkPreferences": [],
    "Id": 57,
    "Name": "Turubah",
    "NameAr": "تربة",
    "RegionId": 5,
    "IsDeleted": false,
    "OldRegionId": 15,
    "Latitude": 21.205117,
    "Longitude": 41.643658
}, {
    "LivingVolunteers": [],
    "Region": null,
    "VolunteersWorkPreferences": [],
    "Id": 58,
    "Name": "Al Lith",
    "NameAr": "الليث",
    "RegionId": 5,
    "IsDeleted": false,
    "OldRegionId": 5,
    "Latitude": 20.132087,
    "Longitude": 40.274739
}, {
    "LivingVolunteers": [],
    "Region": null,
    "VolunteersWorkPreferences": [],
    "Id": 59,
    "Name": "Al Jumum",
    "NameAr": "الجموم",
    "RegionId": 5,
    "IsDeleted": false,
    "OldRegionId": 5,
    "Latitude": 21.854165,
    "Longitude": 39.965394
}, {
    "LivingVolunteers": [],
    "Region": null,
    "VolunteersWorkPreferences": [],
    "Id": 60,
    "Name": "Khulays",
    "NameAr": "خليص",
    "RegionId": 5,
    "IsDeleted": false,
    "OldRegionId": 5,
    "Latitude": 22.14572,
    "Longitude": 39.342596
}, {
    "LivingVolunteers": [],
    "Region": null,
    "VolunteersWorkPreferences": [],
    "Id": 61,
    "Name": "Adham",
    "NameAr": "أضم",
    "RegionId": 5,
    "IsDeleted": false,
    "OldRegionId": 14,
    "Latitude": 20.421644,
    "Longitude": 40.862205
}, {
    "LivingVolunteers": [],
    "Region": null,
    "VolunteersWorkPreferences": [],
    "Id": 62,
    "Name": "Al Khurma",
    "NameAr": "الخرمة",
    "RegionId": 5,
    "IsDeleted": false,
    "OldRegionId": 15,
    "Latitude": 21.923267,
    "Longitude": 42.030196
}, {
    "LivingVolunteers": [],
    "Region": null,
    "VolunteersWorkPreferences": [],
    "Id": 63,
    "Name": "Ranyah",
    "NameAr": "رنية",
    "RegionId": 5,
    "IsDeleted": false,
    "OldRegionId": 15,
    "Latitude": 21.261192,
    "Longitude": 42.853384
}, {
    "LivingVolunteers": [],
    "Region": null,
    "VolunteersWorkPreferences": [],
    "Id": 64,
    "Name": "alertheyat",
    "NameAr": "العرضيات",
    "RegionId": 5,
    "IsDeleted": false,
    "OldRegionId": 15,
    "Latitude": 19.417528,
    "Longitude": 41.579272
}, {
    "LivingVolunteers": [],
    "Region": null,
    "VolunteersWorkPreferences": [],
    "Id": 65,
    "Name": "Al Muwayh",
    "NameAr": "الموية",
    "RegionId": 5,
    "IsDeleted": false,
    "OldRegionId": 15,
    "Latitude": 22.74168,
    "Longitude": 41.589863
}, {
    "LivingVolunteers": [],
    "Region": null,
    "VolunteersWorkPreferences": [],
    "Id": 66,
    "Name": "Maisan",
    "NameAr": "ميسان",
    "RegionId": 5,
    "IsDeleted": false,
    "OldRegionId": 15,
    "Latitude": 20.728771,
    "Longitude": 40.830067
}, {
    "LivingVolunteers": [],
    "Region": null,
    "VolunteersWorkPreferences": [],
    "Id": 67,
    "Name": "Bahrah",
    "NameAr": "بحرة",
    "RegionId": 5,
    "IsDeleted": false,
    "OldRegionId": 5,
    "Latitude": 21.400983,
    "Longitude": 39.463281
}, {
    "LivingVolunteers": [],
    "Region": null,
    "VolunteersWorkPreferences": [],
    "Id": 68,
    "Name": "Arar",
    "NameAr": "عرعر",
    "RegionId": 6,
    "IsDeleted": false,
    "OldRegionId": 6,
    "Latitude": 30.954047,
    "Longitude": 41.064052
}, {
    "LivingVolunteers": [],
    "Region": null,
    "VolunteersWorkPreferences": [],
    "Id": 69,
    "Name": "Rafha",
    "NameAr": "رفحاء",
    "RegionId": 6,
    "IsDeleted": false,
    "OldRegionId": 6,
    "Latitude": 29.627392,
    "Longitude": 43.518091
}, {
    "LivingVolunteers": [],
    "Region": null,
    "VolunteersWorkPreferences": [],
    "Id": 70,
    "Name": "Turaif",
    "NameAr": "طريف",
    "RegionId": 6,
    "IsDeleted": false,
    "OldRegionId": 6,
    "Latitude": 31.666549,
    "Longitude": 38.683073
}, {
    "LivingVolunteers": [],
    "Region": null,
    "VolunteersWorkPreferences": [],
    "Id": 71,
    "Name": "Al Uwayqilah",
    "NameAr": "العويقيلة",
    "RegionId": 6,
    "IsDeleted": false,
    "OldRegionId": 6,
    "Latitude": 30.385766,
    "Longitude": 42.257787
}, {
    "LivingVolunteers": [],
    "Region": null,
    "VolunteersWorkPreferences": [],
    "Id": 72,
    "Name": "Sakakah",
    "NameAr": "سكاكا",
    "RegionId": 7,
    "IsDeleted": false,
    "OldRegionId": 7,
    "Latitude": 29.878214,
    "Longitude": 40.103891
}, {
    "LivingVolunteers": [],
    "Region": null,
    "VolunteersWorkPreferences": [],
    "Id": 73,
    "Name": "Qurayyat",
    "NameAr": "القريات",
    "RegionId": 7,
    "IsDeleted": false,
    "OldRegionId": 7,
    "Latitude": 31.327746,
    "Longitude": 37.363619
}, {
    "LivingVolunteers": [],
    "Region": null,
    "VolunteersWorkPreferences": [],
    "Id": 74,
    "Name": "Dumat al-Jandal",
    "NameAr": "دومة الجندل",
    "RegionId": 7,
    "IsDeleted": false,
    "OldRegionId": 7,
    "Latitude": 29.805335,
    "Longitude": 39.878377
}, {
    "LivingVolunteers": [],
    "Region": null,
    "VolunteersWorkPreferences": [],
    "Id": 75,
    "Name": "Tabarjal",
    "NameAr": "طبرجل",
    "RegionId": 7,
    "IsDeleted": false,
    "OldRegionId": 7,
    "Latitude": 30.520647,
    "Longitude": 38.220457
}, {
    "LivingVolunteers": [],
    "Region": null,
    "VolunteersWorkPreferences": [],
    "Id": 76,
    "Name": "Ha'il",
    "NameAr": "حائل",
    "RegionId": 8,
    "IsDeleted": false,
    "OldRegionId": 8,
    "Latitude": 27.508751,
    "Longitude": 41.712608
}, {
    "LivingVolunteers": [],
    "Region": null,
    "VolunteersWorkPreferences": [],
    "Id": 77,
    "Name": "Baqaa",
    "NameAr": "بقعاء ",
    "RegionId": 8,
    "IsDeleted": false,
    "OldRegionId": 8,
    "Latitude": 27.887487,
    "Longitude": 42.418124
}, {
    "LivingVolunteers": [],
    "Region": null,
    "VolunteersWorkPreferences": [],
    "Id": 78,
    "Name": "Al Ghazalah",
    "NameAr": "الغزالة",
    "RegionId": 8,
    "IsDeleted": false,
    "OldRegionId": 8,
    "Latitude": 26.787882,
    "Longitude": 41.315689
}, {
    "LivingVolunteers": [],
    "Region": null,
    "VolunteersWorkPreferences": [],
    "Id": 79,
    "Name": "Ash Shinan",
    "NameAr": "الشنان",
    "RegionId": 8,
    "IsDeleted": false,
    "OldRegionId": 8,
    "Latitude": 27.179103,
    "Longitude": 42.440301
}, {
    "LivingVolunteers": [],
    "Region": null,
    "VolunteersWorkPreferences": [],
    "Id": 80,
    "Name": "Mawqaq",
    "NameAr": "موقق",
    "RegionId": 8,
    "IsDeleted": false,
    "OldRegionId": 8,
    "Latitude": 27.379253,
    "Longitude": 41.186198
}, {
    "LivingVolunteers": [],
    "Region": null,
    "VolunteersWorkPreferences": [],
    "Id": 81,
    "Name": "Al Hait",
    "NameAr": "الحائط",
    "RegionId": 8,
    "IsDeleted": false,
    "OldRegionId": 8,
    "Latitude": 25.991339,
    "Longitude": 40.468496
}, {
    "LivingVolunteers": [],
    "Region": null,
    "VolunteersWorkPreferences": [],
    "Id": 82,
    "Name": "Al Sulaimi",
    "NameAr": "السليمي",
    "RegionId": 8,
    "IsDeleted": false,
    "OldRegionId": 8,
    "Latitude": 26.303762,
    "Longitude": 41.363791
}, {
    "LivingVolunteers": [],
    "Region": null,
    "VolunteersWorkPreferences": [],
    "Id": 83,
    "Name": "Ash Shamli",
    "NameAr": "الشملي",
    "RegionId": 8,
    "IsDeleted": false,
    "OldRegionId": 8,
    "Latitude": 26.854219,
    "Longitude": 40.323952
}, {
    "LivingVolunteers": [],
    "Region": null,
    "VolunteersWorkPreferences": [],
    "Id": 84,
    "Name": "Sumaira'a",
    "NameAr": "سميراء",
    "RegionId": 8,
    "IsDeleted": false,
    "OldRegionId": 8,
    "Latitude": 26.495371,
    "Longitude": 42.12572
}, {
    "LivingVolunteers": [],
    "Region": null,
    "VolunteersWorkPreferences": [],
    "Id": 85,
    "Name": "Al Hulayfah",
    "NameAr": "الحليفة",
    "RegionId": 8,
    "IsDeleted": false,
    "OldRegionId": 8,
    "Latitude": 25.981744,
    "Longitude": 40.815679
}, {
    "LivingVolunteers": [],
    "Region": null,
    "VolunteersWorkPreferences": [],
    "Id": 86,
    "Name": "Turbah",
    "NameAr": "تربه",
    "RegionId": 8,
    "IsDeleted": false,
    "OldRegionId": 8,
    "Latitude": 21.204169,
    "Longitude": 41.638907
}, {
    "LivingVolunteers": [],
    "Region": null,
    "VolunteersWorkPreferences": [],
    "Id": 87,
    "Name": "Jubbah",
    "NameAr": "جبة",
    "RegionId": 8,
    "IsDeleted": false,
    "OldRegionId": 8,
    "Latitude": 27.999263,
    "Longitude": 40.93194
}, {
    "LivingVolunteers": [],
    "Region": null,
    "VolunteersWorkPreferences": [],
    "Id": 88,
    "Name": "Bahah",
    "NameAr": "الباحة",
    "RegionId": 9,
    "IsDeleted": false,
    "OldRegionId": 9,
    "Latitude": 20.015863,
    "Longitude": 41.465659
}, {
    "LivingVolunteers": [],
    "Region": null,
    "VolunteersWorkPreferences": [],
    "Id": 89,
    "Name": "Bljrashi",
    "NameAr": "بلجرشي ",
    "RegionId": 9,
    "IsDeleted": false,
    "OldRegionId": 9,
    "Latitude": 19.859549,
    "Longitude": 41.579518
}, {
    "LivingVolunteers": [],
    "Region": null,
    "VolunteersWorkPreferences": [],
    "Id": 90,
    "Name": "Al-Mendag",
    "NameAr": "المندق ",
    "RegionId": 9,
    "IsDeleted": false,
    "OldRegionId": 9,
    "Latitude": 20.106085,
    "Longitude": 41.289428
}, {
    "LivingVolunteers": [],
    "Region": null,
    "VolunteersWorkPreferences": [],
    "Id": 91,
    "Name": "Al-Mekwah",
    "NameAr": "المخواة ",
    "RegionId": 9,
    "IsDeleted": false,
    "OldRegionId": 9,
    "Latitude": 19.769394,
    "Longitude": 41.350316
}, {
    "LivingVolunteers": [],
    "Region": null,
    "VolunteersWorkPreferences": [],
    "Id": 92,
    "Name": "Al-Hajra",
    "NameAr": "الحجرة ",
    "RegionId": 9,
    "IsDeleted": false,
    "OldRegionId": 9,
    "Latitude": 20.233544,
    "Longitude": 41.055474
}, {
    "LivingVolunteers": [],
    "Region": null,
    "VolunteersWorkPreferences": [],
    "Id": 93,
    "Name": "Al-Qara",
    "NameAr": "القرى ",
    "RegionId": 9,
    "IsDeleted": false,
    "OldRegionId": 9,
    "Latitude": 20.242779,
    "Longitude": 41.362842
}, {
    "LivingVolunteers": [],
    "Region": null,
    "VolunteersWorkPreferences": [],
    "Id": 94,
    "Name": "Al-Aqeeq",
    "NameAr": "العقيق ",
    "RegionId": 9,
    "IsDeleted": false,
    "OldRegionId": 9,
    "Latitude": 20.278918,
    "Longitude": 41.653268
}, {
    "LivingVolunteers": [],
    "Region": null,
    "VolunteersWorkPreferences": [],
    "Id": 95,
    "Name": "Bani-Hassan",
    "NameAr": " بني حسن",
    "RegionId": 9,
    "IsDeleted": false,
    "OldRegionId": 9,
    "Latitude": 20.057041,
    "Longitude": 41.365758
}, {
    "LivingVolunteers": [],
    "Region": null,
    "VolunteersWorkPreferences": [],
    "Id": 96,
    "Name": "Ghamed-Alzenad",
    "NameAr": "غامد الزناد",
    "RegionId": 9,
    "IsDeleted": false,
    "OldRegionId": 9,
    "Latitude": 19.621386,
    "Longitude": 41.450124
}, {
    "LivingVolunteers": [],
    "Region": null,
    "VolunteersWorkPreferences": [],
    "Id": 97,
    "Name": "Gelwa",
    "NameAr": "قلوة ",
    "RegionId": 9,
    "IsDeleted": false,
    "OldRegionId": 9,
    "Latitude": 19.979512,
    "Longitude": 41.221713
}, {
    "LivingVolunteers": [],
    "Region": null,
    "VolunteersWorkPreferences": [],
    "Id": 98,
    "Name": "Jizan",
    "NameAr": "جازان",
    "RegionId": 10,
    "IsDeleted": false,
    "OldRegionId": 10,
    "Latitude": 16.897399,
    "Longitude": 42.565962
}, {
    "LivingVolunteers": [],
    "Region": null,
    "VolunteersWorkPreferences": [],
    "Id": 99,
    "Name": "Sabya",
    "NameAr": "صبيا",
    "RegionId": 10,
    "IsDeleted": false,
    "OldRegionId": 10,
    "Latitude": 17.155207,
    "Longitude": 42.626466
}, {
    "LivingVolunteers": [],
    "Region": null,
    "VolunteersWorkPreferences": [],
    "Id": 100,
    "Name": "Samtah",
    "NameAr": "صامطة",
    "RegionId": 10,
    "IsDeleted": false,
    "OldRegionId": 10,
    "Latitude": 16.602435,
    "Longitude": 42.932242
}, {
    "LivingVolunteers": [],
    "Region": null,
    "VolunteersWorkPreferences": [],
    "Id": 101,
    "Name": "Abu `Arish",
    "NameAr": "أبو عريش",
    "RegionId": 10,
    "IsDeleted": false,
    "OldRegionId": 10,
    "Latitude": 16.968706,
    "Longitude": 42.840329
}, {
    "LivingVolunteers": [],
    "Region": null,
    "VolunteersWorkPreferences": [],
    "Id": 102,
    "Name": "Ahad al Masarihah",
    "NameAr": "أحد المسارحة",
    "RegionId": 10,
    "IsDeleted": false,
    "OldRegionId": 10,
    "Latitude": 16.712467,
    "Longitude": 42.947782
}, {
    "LivingVolunteers": [],
    "Region": null,
    "VolunteersWorkPreferences": [],
    "Id": 103,
    "Name": "Baish",
    "NameAr": "بيش",
    "RegionId": 10,
    "IsDeleted": false,
    "OldRegionId": 10,
    "Latitude": 17.376928,
    "Longitude": 42.538175
}, {
    "LivingVolunteers": [],
    "Region": null,
    "VolunteersWorkPreferences": [],
    "Id": 104,
    "Name": "Al Aridhah",
    "NameAr": "العارضة",
    "RegionId": 10,
    "IsDeleted": false,
    "OldRegionId": 10,
    "Latitude": 17.038459,
    "Longitude": 43.048735
}, {
    "LivingVolunteers": [],
    "Region": null,
    "VolunteersWorkPreferences": [],
    "Id": 105,
    "Name": "Damad",
    "NameAr": "ضمد",
    "RegionId": 10,
    "IsDeleted": false,
    "OldRegionId": 10,
    "Latitude": 17.109453,
    "Longitude": 42.773252
}, {
    "LivingVolunteers": [],
    "Region": null,
    "VolunteersWorkPreferences": [],
    "Id": 106,
    "Name": "Ad Darb",
    "NameAr": "الدرب",
    "RegionId": 10,
    "IsDeleted": false,
    "OldRegionId": 10,
    "Latitude": 17.735945,
    "Longitude": 42.255803
}, {
    "LivingVolunteers": [],
    "Region": null,
    "VolunteersWorkPreferences": [],
    "Id": 107,
    "Name": "Al Edabi",
    "NameAr": "العيدابي",
    "RegionId": 10,
    "IsDeleted": false,
    "OldRegionId": 10,
    "Latitude": 17.236799,
    "Longitude": 42.938824
}, {
    "LivingVolunteers": [],
    "Region": null,
    "VolunteersWorkPreferences": [],
    "Id": 108,
    "Name": "Addayer",
    "NameAr": "الدائر",
    "RegionId": 10,
    "IsDeleted": false,
    "OldRegionId": 10,
    "Latitude": 17.342788,
    "Longitude": 43.13628
}, {
    "LivingVolunteers": [],
    "Region": null,
    "VolunteersWorkPreferences": [],
    "Id": 109,
    "Name": "Al Reeth",
    "NameAr": "الريث",
    "RegionId": 10,
    "IsDeleted": false,
    "OldRegionId": 10,
    "Latitude": 16.815641,
    "Longitude": 43.17569
}, {
    "LivingVolunteers": [],
    "Region": null,
    "VolunteersWorkPreferences": [],
    "Id": 110,
    "Name": "Al-Harith ",
    "NameAr": "الحرث",
    "RegionId": 10,
    "IsDeleted": false,
    "OldRegionId": 10,
    "Latitude": 26.356713,
    "Longitude": 49.961283
}, {
    "LivingVolunteers": [],
    "Region": null,
    "VolunteersWorkPreferences": [],
    "Id": 111,
    "Name": "Farasan",
    "NameAr": "فرسان",
    "RegionId": 10,
    "IsDeleted": false,
    "OldRegionId": 10,
    "Latitude": 16.527614,
    "Longitude": 42.973222
}, {
    "LivingVolunteers": [],
    "Region": null,
    "VolunteersWorkPreferences": [],
    "Id": 112,
    "Name": "At Tuwal",
    "NameAr": "الطوال",
    "RegionId": 10,
    "IsDeleted": false,
    "OldRegionId": 10,
    "Latitude": 16.527696,
    "Longitude": 42.972793
}, {
    "LivingVolunteers": [],
    "Region": null,
    "VolunteersWorkPreferences": [],
    "Id": 113,
    "Name": "Harub",
    "NameAr": "هروب",
    "RegionId": 10,
    "IsDeleted": false,
    "OldRegionId": 10,
    "Latitude": 17.43649,
    "Longitude": 42.887803
}, {
    "LivingVolunteers": [],
    "Region": null,
    "VolunteersWorkPreferences": [],
    "Id": 114,
    "Name": "Fayfa",
    "NameAr": "فيفاء",
    "RegionId": 10,
    "IsDeleted": false,
    "OldRegionId": 10,
    "Latitude": 17.255266,
    "Longitude": 43.104527
}, {
    "LivingVolunteers": [],
    "Region": null,
    "VolunteersWorkPreferences": [],
    "Id": 115,
    "Name": "Abha",
    "NameAr": "أبها",
    "RegionId": 11,
    "IsDeleted": false,
    "OldRegionId": 11,
    "Latitude": 18.245133,
    "Longitude": 42.550555
}, {
    "LivingVolunteers": [],
    "Region": null,
    "VolunteersWorkPreferences": [],
    "Id": 116,
    "Name": "Khamis Mushait",
    "NameAr": "خميس مشيط",
    "RegionId": 11,
    "IsDeleted": false,
    "OldRegionId": 11,
    "Latitude": 18.298189,
    "Longitude": 42.759417
}, {
    "LivingVolunteers": [],
    "Region": null,
    "VolunteersWorkPreferences": [],
    "Id": 117,
    "Name": "Bisha",
    "NameAr": "بيشة",
    "RegionId": 11,
    "IsDeleted": false,
    "OldRegionId": 11,
    "Latitude": 19.976639,
    "Longitude": 42.599652
}, {
    "LivingVolunteers": [],
    "Region": null,
    "VolunteersWorkPreferences": [],
    "Id": 118,
    "Name": "Al-Namas",
    "NameAr": "النماص",
    "RegionId": 11,
    "IsDeleted": false,
    "OldRegionId": 11,
    "Latitude": 19.112422,
    "Longitude": 42.161297
}, {
    "LivingVolunteers": [],
    "Region": null,
    "VolunteersWorkPreferences": [],
    "Id": 119,
    "Name": "Ahad Rafidah",
    "NameAr": "أحد رفيدة",
    "RegionId": 11,
    "IsDeleted": false,
    "OldRegionId": 11,
    "Latitude": 18.198161,
    "Longitude": 42.842146
}, {
    "LivingVolunteers": [],
    "Region": null,
    "VolunteersWorkPreferences": [],
    "Id": 120,
    "Name": "Bareq",
    "NameAr": "بارق",
    "RegionId": 11,
    "IsDeleted": false,
    "OldRegionId": 11,
    "Latitude": 18.930932,
    "Longitude": 41.932526
}, {
    "LivingVolunteers": [],
    "Region": null,
    "VolunteersWorkPreferences": [],
    "Id": 121,
    "Name": "Al Birk",
    "NameAr": "البرك",
    "RegionId": 11,
    "IsDeleted": false,
    "OldRegionId": 11,
    "Latitude": 18.229281,
    "Longitude": 41.537762
}, {
    "LivingVolunteers": [],
    "Region": null,
    "VolunteersWorkPreferences": [],
    "Id": 122,
    "Name": "Balqarn",
    "NameAr": "بلقرن",
    "RegionId": 11,
    "IsDeleted": false,
    "OldRegionId": 11,
    "Latitude": 19.743137,
    "Longitude": 41.949055
}, {
    "LivingVolunteers": [],
    "Region": null,
    "VolunteersWorkPreferences": [],
    "Id": 123,
    "Name": "Tathlith",
    "NameAr": "تثليث",
    "RegionId": 11,
    "IsDeleted": false,
    "OldRegionId": 11,
    "Latitude": 19.529905,
    "Longitude": 43.523629
}, {
    "LivingVolunteers": [],
    "Region": null,
    "VolunteersWorkPreferences": [],
    "Id": 124,
    "Name": "Tanomah",
    "NameAr": "تنومة",
    "RegionId": 11,
    "IsDeleted": false,
    "OldRegionId": 11,
    "Latitude": 18.933067,
    "Longitude": 42.181652
}, {
    "LivingVolunteers": [],
    "Region": null,
    "VolunteersWorkPreferences": [],
    "Id": 125,
    "Name": "Rejal Alma",
    "NameAr": "رجال ألمع",
    "RegionId": 11,
    "IsDeleted": false,
    "OldRegionId": 11,
    "Latitude": 17.406908,
    "Longitude": 43.073985
}, {
    "LivingVolunteers": [],
    "Region": null,
    "VolunteersWorkPreferences": [],
    "Id": 126,
    "Name": "Sarat Ubaida ",
    "NameAr": "سراة عبيدة",
    "RegionId": 11,
    "IsDeleted": false,
    "OldRegionId": 11,
    "Latitude": 18.092084,
    "Longitude": 43.128377
}, {
    "LivingVolunteers": [],
    "Region": null,
    "VolunteersWorkPreferences": [],
    "Id": 127,
    "Name": "Tereeb",
    "NameAr": "طريب",
    "RegionId": 11,
    "IsDeleted": false,
    "OldRegionId": 11,
    "Latitude": 18.566059,
    "Longitude": 43.204293
}, {
    "LivingVolunteers": [],
    "Region": null,
    "VolunteersWorkPreferences": [],
    "Id": 128,
    "Name": "Dhahran Aljanoub ",
    "NameAr": "ظهران الجنوب",
    "RegionId": 11,
    "IsDeleted": false,
    "OldRegionId": 11,
    "Latitude": 17.664999,
    "Longitude": 43.515022
}, {
    "LivingVolunteers": [],
    "Region": null,
    "VolunteersWorkPreferences": [],
    "Id": 129,
    "Name": "Muhayl",
    "NameAr": "محايل",
    "RegionId": 11,
    "IsDeleted": false,
    "OldRegionId": 11,
    "Latitude": 18.547221,
    "Longitude": 42.056372
}, {
    "LivingVolunteers": [],
    "Region": null,
    "VolunteersWorkPreferences": [],
    "Id": 130,
    "Name": "Almajaridah",
    "NameAr": "المجاردة",
    "RegionId": 11,
    "IsDeleted": false,
    "OldRegionId": 11,
    "Latitude": 19.10697,
    "Longitude": 41.925566
}, {
    "LivingVolunteers": [],
    "Region": null,
    "VolunteersWorkPreferences": [],
    "Id": 131,
    "Name": "Najran",
    "NameAr": "نجران",
    "RegionId": 12,
    "IsDeleted": false,
    "OldRegionId": 12,
    "Latitude": 17.552668,
    "Longitude": 44.214548
}, {
    "LivingVolunteers": [],
    "Region": null,
    "VolunteersWorkPreferences": [],
    "Id": 132,
    "Name": "Sharorah",
    "NameAr": "شرورة",
    "RegionId": 12,
    "IsDeleted": false,
    "OldRegionId": 12,
    "Latitude": 17.487273,
    "Longitude": 47.109762
}, {
    "LivingVolunteers": [],
    "Region": null,
    "VolunteersWorkPreferences": [],
    "Id": 133,
    "Name": "Hubuna",
    "NameAr": "حبونا",
    "RegionId": 12,
    "IsDeleted": false,
    "OldRegionId": 12,
    "Latitude": 17.841634,
    "Longitude": 44.025522
}, {
    "LivingVolunteers": [],
    "Region": null,
    "VolunteersWorkPreferences": [],
    "Id": 134,
    "Name": "Thar",
    "NameAr": "ثار",
    "RegionId": 12,
    "IsDeleted": false,
    "OldRegionId": 12,
    "Latitude": 17.977483,
    "Longitude": 44.108427
}, {
    "LivingVolunteers": [],
    "Region": null,
    "VolunteersWorkPreferences": [],
    "Id": 135,
    "Name": "Yadamah",
    "NameAr": "يدمه",
    "RegionId": 12,
    "IsDeleted": false,
    "OldRegionId": 12,
    "Latitude": 18.529775,
    "Longitude": 44.231721
}, {
    "LivingVolunteers": [],
    "Region": null,
    "VolunteersWorkPreferences": [],
    "Id": 136,
    "Name": "Badr Al Janoub",
    "NameAr": "بدر الجنوب",
    "RegionId": 12,
    "IsDeleted": false,
    "OldRegionId": 12,
    "Latitude": 17.879739,
    "Longitude": 43.722239
}, {
    "LivingVolunteers": [],
    "Region": null,
    "VolunteersWorkPreferences": [],
    "Id": 137,
    "Name": "Khbash",
    "NameAr": "خباش",
    "RegionId": 12,
    "IsDeleted": false,
    "OldRegionId": 12,
    "Latitude": 17.541568,
    "Longitude": 44.669111
}, {
    "LivingVolunteers": [],
    "Region": null,
    "VolunteersWorkPreferences": [],
    "Id": 138,
    "Name": "Al Kharkhir",
    "NameAr": "الخرخير",
    "RegionId": 12,
    "IsDeleted": false,
    "OldRegionId": 12,
    "Latitude": 18.863598,
    "Longitude": 51.129041
}, {
    "LivingVolunteers": [],
    "Region": null,
    "VolunteersWorkPreferences": [],
    "Id": 139,
    "Name": "Dammam",
    "NameAr": "الدمام",
    "RegionId": 13,
    "IsDeleted": false,
    "OldRegionId": 13,
    "Latitude": 26.395096,
    "Longitude": 50.014521
}, {
    "LivingVolunteers": [],
    "Region": null,
    "VolunteersWorkPreferences": [],
    "Id": 140,
    "Name": "Al Ahsa",
    "NameAr": "الاحساء",
    "RegionId": 13,
    "IsDeleted": false,
    "OldRegionId": 13,
    "Latitude": 22.492641,
    "Longitude": 49.447642
}, {
    "LivingVolunteers": [],
    "Region": null,
    "VolunteersWorkPreferences": [],
    "Id": 141,
    "Name": "Al Khobar",
    "NameAr": "الخبر",
    "RegionId": 13,
    "IsDeleted": false,
    "OldRegionId": 13,
    "Latitude": 26.21124,
    "Longitude": 50.193902
}, {
    "LivingVolunteers": [],
    "Region": null,
    "VolunteersWorkPreferences": [],
    "Id": 142,
    "Name": "Al Jubail",
    "NameAr": "الجبيل",
    "RegionId": 13,
    "IsDeleted": false,
    "OldRegionId": 13,
    "Latitude": 26.955939,
    "Longitude": 49.579075
}, {
    "LivingVolunteers": [],
    "Region": null,
    "VolunteersWorkPreferences": [],
    "Id": 143,
    "Name": "Hafar Al Batin",
    "NameAr": "حفر الباطن",
    "RegionId": 13,
    "IsDeleted": false,
    "OldRegionId": 13,
    "Latitude": 28.357783,
    "Longitude": 45.967749
}, {
    "LivingVolunteers": [],
    "Region": null,
    "VolunteersWorkPreferences": [],
    "Id": 144,
    "Name": "Nairyah",
    "NameAr": "النعيرية",
    "RegionId": 13,
    "IsDeleted": false,
    "OldRegionId": 13,
    "Latitude": 27.476019,
    "Longitude": 48.487883
}, {
    "LivingVolunteers": [],
    "Region": null,
    "VolunteersWorkPreferences": [],
    "Id": 145,
    "Name": "Al Qatif",
    "NameAr": "القطيف",
    "RegionId": 13,
    "IsDeleted": false,
    "OldRegionId": 13,
    "Latitude": 26.575064,
    "Longitude": 49.990971
}, {
    "LivingVolunteers": [],
    "Region": null,
    "VolunteersWorkPreferences": [],
    "Id": 146,
    "Name": "Khafji",
    "NameAr": "الخفجي",
    "RegionId": 13,
    "IsDeleted": false,
    "OldRegionId": 13,
    "Latitude": 28.423898,
    "Longitude": 48.484009
}, {
    "LivingVolunteers": [],
    "Region": null,
    "VolunteersWorkPreferences": [],
    "Id": 147,
    "Name": "Ras Tanura",
    "NameAr": "رأس تنورة ",
    "RegionId": 13,
    "IsDeleted": false,
    "OldRegionId": 13,
    "Latitude": 26.769985,
    "Longitude": 50.007603
}, {
    "LivingVolunteers": [],
    "Region": null,
    "VolunteersWorkPreferences": [],
    "Id": 148,
    "Name": "Buqayq",
    "NameAr": "بقيق ",
    "RegionId": 13,
    "IsDeleted": false,
    "OldRegionId": 13,
    "Latitude": 25.926961,
    "Longitude": 49.647475
}, {
    "LivingVolunteers": [],
    "Region": null,
    "VolunteersWorkPreferences": [],
    "Id": 149,
    "Name": "Qaryat Al Ulya",
    "NameAr": "قرية العليا ",
    "RegionId": 13,
    "IsDeleted": false,
    "OldRegionId": 13,
    "Latitude": 27.560776,
    "Longitude": 47.704568
}, {
    "LivingVolunteers": [],
    "Region": null,
    "VolunteersWorkPreferences": [],
    "Id": 150,
    "Name": "Alo'daid",
    "NameAr": "العديد",
    "RegionId": 13,
    "IsDeleted": false,
    "OldRegionId": 13,
    "Latitude": 24.602325,
    "Longitude": 51.41593
}, {
    "LivingVolunteers": [],
    "Region": null,
    "VolunteersWorkPreferences": [],
    "Id": 151,
    "Name": "alrayn",
    "NameAr": "الرين",
    "RegionId": 1,
    "IsDeleted": false,
    "OldRegionId": 1,
    "Latitude": 23.543328,
    "Longitude": 45.511492
}, {
    "LivingVolunteers": [],
    "Region": null,
    "VolunteersWorkPreferences": [],
    "Id": 153,
    "Name": "shuebat nasab",
    "NameAr": "شعبة نصاب",
    "RegionId": 6,
    "IsDeleted": false,
    "OldRegionId": 6,
    "Latitude": 28.896676,
    "Longitude": 44.73135
}, {
    "LivingVolunteers": [],
    "Region": null,
    "VolunteersWorkPreferences": [],
    "Id": 154,
    "Name": "laynah",
    "NameAr": "لينه",
    "RegionId": 6,
    "IsDeleted": false,
    "OldRegionId": 6,
    "Latitude": 28.764722,
    "Longitude": 43.73713
}, {
    "LivingVolunteers": [],
    "Region": null,
    "VolunteersWorkPreferences": [],
    "Id": 155,
    "Name": "rawdat hbas",
    "NameAr": "روضة هباس",
    "RegionId": 6,
    "IsDeleted": false,
    "OldRegionId": 6,
    "Latitude": 29.149421,
    "Longitude": 44.325671
}, {
    "LivingVolunteers": [],
    "Region": null,
    "VolunteersWorkPreferences": [],
    "Id": 159,
    "Name": "Buraidah",
    "NameAr": "بريدة",
    "RegionId": 16,
    "IsDeleted": false,
    "OldRegionId": 16,
    "Latitude": 21.452373,
    "Longitude": 39.846441
}, {
    "LivingVolunteers": [],
    "Region": null,
    "VolunteersWorkPreferences": [],
    "Id": 160,
    "Name": "Tabuk",
    "NameAr": "تبوك",
    "RegionId": 16,
    "IsDeleted": false,
    "OldRegionId": 16,
    "Latitude": 30.951214,
    "Longitude": 41.070133
}, {
    "LivingVolunteers": [],
    "Region": null,
    "VolunteersWorkPreferences": [],
    "Id": 161,
    "Name": "Madinah",
    "NameAr": "المدينة",
    "RegionId": 16,
    "IsDeleted": false,
    "OldRegionId": 16,
    "Latitude": 29.897925,
    "Longitude": 40.147513
}, {
    "LivingVolunteers": [],
    "Region": null,
    "VolunteersWorkPreferences": [],
    "Id": 162,
    "Name": "Mecca",
    "NameAr": "مكة المكرمة",
    "RegionId": 16,
    "IsDeleted": false,
    "OldRegionId": 16,
    "Latitude": 27.508751,
    "Longitude": 41.712608
}, {
    "LivingVolunteers": [],
    "Region": null,
    "VolunteersWorkPreferences": [],
    "Id": 163,
    "Name": "Arar",
    "NameAr": "عرعر",
    "RegionId": 16,
    "IsDeleted": false,
    "OldRegionId": 16,
    "Latitude": 20.01377,
    "Longitude": 41.466308
}, {
    "LivingVolunteers": [],
    "Region": null,
    "VolunteersWorkPreferences": [],
    "Id": 164,
    "Name": "Sakakah",
    "NameAr": "سكاكا",
    "RegionId": 16,
    "IsDeleted": false,
    "OldRegionId": 16,
    "Latitude": 16.903409,
    "Longitude": 42.58846
}, {
    "LivingVolunteers": [],
    "Region": null,
    "VolunteersWorkPreferences": [],
    "Id": 165,
    "Name": "Ha'il",
    "NameAr": "حائل",
    "RegionId": 16,
    "IsDeleted": false,
    "OldRegionId": 16,
    "Latitude": 18.240042,
    "Longitude": 42.561467
}, {
    "LivingVolunteers": [],
    "Region": null,
    "VolunteersWorkPreferences": [],
    "Id": 166,
    "Name": "Bahah",
    "NameAr": "الباحة",
    "RegionId": 16,
    "IsDeleted": false,
    "OldRegionId": 16,
    "Latitude": 26.389561,
    "Longitude": 50.017955
}, {
    "LivingVolunteers": [],
    "Region": null,
    "VolunteersWorkPreferences": [],
    "Id": 167,
    "Name": "Jizan",
    "NameAr": "جازان",
    "RegionId": 16,
    "IsDeleted": false,
    "OldRegionId": 16,
    "Latitude": null,
    "Longitude": null
}, {
    "LivingVolunteers": [],
    "Region": null,
    "VolunteersWorkPreferences": [],
    "Id": 168,
    "Name": "Abha",
    "NameAr": "أبها",
    "RegionId": 16,
    "IsDeleted": false,
    "OldRegionId": 16,
    "Latitude": null,
    "Longitude": null
}, {
    "LivingVolunteers": [],
    "Region": null,
    "VolunteersWorkPreferences": [],
    "Id": 169,
    "Name": "Najran",
    "NameAr": "نجران",
    "RegionId": 16,
    "IsDeleted": false,
    "OldRegionId": 16,
    "Latitude": null,
    "Longitude": null
}, {
    "LivingVolunteers": [],
    "Region": null,
    "VolunteersWorkPreferences": [],
    "Id": 170,
    "Name": "Dammam",
    "NameAr": "الدمام",
    "RegionId": 16,
    "IsDeleted": false,
    "OldRegionId": 16,
    "Latitude": null,
    "Longitude": null
}, {
    "LivingVolunteers": [],
    "Region": null,
    "VolunteersWorkPreferences": [],
    "Id": 171,
    "Name": "Umluj",
    "NameAr": "أملج",
    "RegionId": 3,
    "IsDeleted": false,
    "OldRegionId": null,
    "Latitude": null,
    "Longitude": null
}, {
    "LivingVolunteers": [],
    "Region": null,
    "VolunteersWorkPreferences": [],
    "Id": 172,
    "Name": "Al Artawiyah",
    "NameAr": "الأرطاوية",
    "RegionId": 1,
    "IsDeleted": false,
    "OldRegionId": null,
    "Latitude": null,
    "Longitude": null
}, {
    "LivingVolunteers": [],
    "Region": null,
    "VolunteersWorkPreferences": [],
    "Id": 173,
    "Name": "Jadidat Arar",
    "NameAr": "جديدة عرعر",
    "RegionId": 6,
    "IsDeleted": false,
    "OldRegionId": null,
    "Latitude": null,
    "Longitude": null
}, {
    "LivingVolunteers": [],
    "Region": null,
    "VolunteersWorkPreferences": [],
    "Id": 174,
    "Name": "Dhalm",
    "NameAr": "ظلم",
    "RegionId": 5,
    "IsDeleted": false,
    "OldRegionId": null,
    "Latitude": null,
    "Longitude": null
}, {
    "LivingVolunteers": [],
    "Region": null,
    "VolunteersWorkPreferences": [],
    "Id": 175,
    "Name": "الحرجة",
    "NameAr": "الحرجة",
    "RegionId": 11,
    "IsDeleted": false,
    "OldRegionId": null,
    "Latitude": null,
    "Longitude": null
}, {
    "LivingVolunteers": [],
    "Region": null,
    "VolunteersWorkPreferences": [],
    "Id": 176,
    "Name": "رفايع بالجمش",
    "NameAr": "رفايع بالجمش",
    "RegionId": 1,
    "IsDeleted": false,
    "OldRegionId": null,
    "Latitude": null,
    "Longitude": null
}, {
    "LivingVolunteers": [],
    "Region": null,
    "VolunteersWorkPreferences": [],
    "Id": 177,
    "Name": "جلاجل",
    "NameAr": "جلاجل",
    "RegionId": 1,
    "IsDeleted": false,
    "OldRegionId": null,
    "Latitude": null,
    "Longitude": null
}, {
    "LivingVolunteers": [],
    "Region": null,
    "VolunteersWorkPreferences": [],
    "Id": 178,
    "Name": "الدلم",
    "NameAr": "الدلم",
    "RegionId": 1,
    "IsDeleted": false,
    "OldRegionId": null,
    "Latitude": null,
    "Longitude": null
}, {
    "LivingVolunteers": [],
    "Region": null,
    "VolunteersWorkPreferences": [],
    "Id": 180,
    "Name": "ALKAHMAH",
    "NameAr": "القحمة",
    "RegionId": 11,
    "IsDeleted": false,
    "OldRegionId": null,
    "Latitude": null,
    "Longitude": null
}, {
    "LivingVolunteers": [],
    "Region": null,
    "VolunteersWorkPreferences": [],
    "Id": 181,
    "Name": "BALLASMAR",
    "NameAr": "بللسمر",
    "RegionId": 11,
    "IsDeleted": false,
    "OldRegionId": null,
    "Latitude": null,
    "Longitude": null
}, {
    "LivingVolunteers": [],
    "Region": null,
    "VolunteersWorkPreferences": [],
    "Id": 182,
    "Name": "BALLAHMAR",
    "NameAr": "بللحمر",
    "RegionId": 11,
    "IsDeleted": false,
    "OldRegionId": null,
    "Latitude": null,
    "Longitude": null
}, {
    "LivingVolunteers": [],
    "Region": null,
    "VolunteersWorkPreferences": [],
    "Id": 183,
    "Name": "ALFARSHA",
    "NameAr": "الفرشة",
    "RegionId": 11,
    "IsDeleted": false,
    "OldRegionId": null,
    "Latitude": null,
    "Longitude": null
}, {
    "LivingVolunteers": [],
    "Region": null,
    "VolunteersWorkPreferences": [],
    "Id": 184,
    "Name": "Sajir",
    "NameAr": "ساجر",
    "RegionId": 1,
    "IsDeleted": false,
    "OldRegionId": null,
    "Latitude": null,
    "Longitude": null
}, {
    "LivingVolunteers": [],
    "Region": null,
    "VolunteersWorkPreferences": [],
    "Id": 185,
    "Name": "Hawtah Sudayr",
    "NameAr": "حوطة سدير",
    "RegionId": 1,
    "IsDeleted": false,
    "OldRegionId": null,
    "Latitude": null,
    "Longitude": null
}, {
    "LivingVolunteers": [],
    "Region": null,
    "VolunteersWorkPreferences": [],
    "Id": 186,
    "Name": "Tumaer",
    "NameAr": "تمير ",
    "RegionId": 1,
    "IsDeleted": false,
    "OldRegionId": null,
    "Latitude": null,
    "Longitude": null
}, {
    "LivingVolunteers": [],
    "Region": null,
    "VolunteersWorkPreferences": [],
    "Id": 187,
    "Name": "Bani Malil",
    "NameAr": "بني مالك",
    "RegionId": 10,
    "IsDeleted": false,
    "OldRegionId": null,
    "Latitude": null,
    "Longitude": null
}, {
    "LivingVolunteers": [],
    "Region": null,
    "VolunteersWorkPreferences": [],
    "Id": 188,
    "Name": "Al Moasim",
    "NameAr": "الموسم",
    "RegionId": 10,
    "IsDeleted": false,
    "OldRegionId": null,
    "Latitude": null,
    "Longitude": null
}, {
    "LivingVolunteers": [],
    "Region": null,
    "VolunteersWorkPreferences": [],
    "Id": 189,
    "Name": "AL- Madhah",
    "NameAr": "المضة",
    "RegionId": 11,
    "IsDeleted": false,
    "OldRegionId": null,
    "Latitude": null,
    "Longitude": null
}]